OBJECTID,TRL_NAME,PARK_NAME,TRL_ID,SEG_ID,FEATURE,FEAT_CMNT,ELEV_FT,CITY_JUR,ZIP_CODE,SUP_DIST,X_STREET,PARKING,PHOTO,LAT,LON,FID,x,y
7769,Medea Creek Trail,National Parks Service,20082,200820000,TAPO,Auto Generated and Verified,831,Unincorporated Los Angeles County,91301,3rd District,28825 Lake Vista Dr,SA,,34.11305718,-118.75152666,1,-118.75152666,34.11305718
8047,Hearst Tank Motorway,National Parks Service,20067,200670000,TAPO,,1555,Unincorporated Los Angeles County,90290,3rd District,3200 Tuna Canyon Rd,ST,,34.05968704,-118.61654529,2,-118.61654529,34.05968704
7770,Medicine Woman Trail,National Parks Service,20084,200840000,TH,Auto Generated and Verified,758,Unincorporated Los Angeles County,91301,3rd District,2900 Cornell Rd,SA,,34.11736375,-118.75683927,3,-118.75683927,34.11736375
8048,Pipe Corral Spur Trail,CA State Parks - Topanga,10133,101330000,TAPO,Auto Generated and Verified,0,Los Angeles,90272,3rd District,,ST,,34.07934551,-118.51972364,4,-118.51972364,34.07934551
7773,Mesa Peak Motorway,CA State Parks - Malibu Creek,10112,101120000,TH,Auto Generated and Verified,1982,Unincorporated Los Angeles County,90265,3rd District,300 Corral Canyon Rd,ST,,34.07905997,-118.75556306,5,-118.75556306,34.07905997
8049,Willow Creek Trail,CA State Parks - Leo Carrillo,10176,101760000,TAPO,Auto Generated and Verified,0,Unincorporated Los Angeles County,90265,3rd District,35789 Pacific Coast Hwy,SA,,34.04716257,-118.93309434,6,-118.93309434,34.04716257
8050,Stunt Road - BBT Connector,CA State Parks - Malibu Creek,10156,101560000,TAPO,Added From NPS ParkEntrancePts.shp,0,Unincorporated Los Angeles County,91302,3rd District,814 Stunt Rd,ST,,34.08599879,-118.66008813,7,-118.66008813,34.08599879
7774,Modelo Trail,National Parks Service,20085,200850000,TH,Auto Generated and Verified,1011,Unincorporated Los Angeles County,91301,3rd District,Cheseboro Canyon Rd and Cheseboro Road,SA,,34.15655231,-118.73083841,8,-118.73083841,34.15655231
8051,Glade Trail - Topanga,CA State Parks - Topanga,10070,100700000,TAPO,Auto Generated and Verified,1191,Los Angeles,90290,3rd District,20800 Entrada Rd,SA,,34.09336192,-118.58731966,9,-118.58731966,34.09336192
7775,Monte Nido Connector,National Parks Service,20087,200870000,TAPO,Auto Generated and Verified,632,Unincorporated Los Angeles County,91302,3rd District,803 Wonder View Dr,ST,,34.08304412,-118.68487637,10,-118.68487637,34.08304412
7758,Lower Stunt High Trail,National Parks Service,20076,200760000,TH,Auto Generated and Verified,1263,Unincorporated Los Angeles County,91302,3rd District,1623 Stunt Rd,ST,,34.09492784,-118.64824444,11,-118.64824444,34.09492784
7776,Morrison Ranch Trail,National Parks Service,20088,200880000,TH,Auto Generated and Verified,809,Calabasas,91302,3rd District,5539 Las Virgenes Rd,ST,,34.15762013,-118.70056931,12,-118.70056931,34.15762013
7630,92 Trail,CA State Parks - Topanga,10002,100020000,TAPO,Auto Generated and Verified,1158,Unincorporated Los Angeles County,90290,3rd District,21042 Entrada Rd,ST,,34.09205297,-118.59242306,13,-118.59242306,34.09205297
7781,Musch Camp Access Road,CA State Parks - Topanga,10115,101150000,TAPO,Auto Generated and Verified,1085,Unincorporated Los Angeles County,90290,3rd District,20846 Hillside Dr,ST,,34.10392797,-118.58902806,14,-118.58902806,34.10392797
7782,Backbone Trail - Musch Trail,CA State Parks - Topanga,10118,101180000,TAPO,Auto Generated and Verified,1184,Unincorporated Los Angeles County,90290,3rd District,20800 Entrada Rd,SA,,34.09359514,-118.58745787,15,-118.58745787,34.09359514
7632,Agoura Equestrian Center Connector Trail,National Parks Service,20002,200020000,TH,Auto Generated and Verified,1011,Unincorporated Los Angeles County,91301,3rd District,Cheseboro Canyon Rd and Cheseboro Road,SA,,34.15655231,-118.73083841,16,-118.73083841,34.15655231
7783,Nature Trail,CA State Parks - Topanga,10119,101190001,TAPO,Auto Generated and Verified,1184,Los Angeles,90290,3rd District,20800 Entrada Rd,SA,,34.09356836,-118.58736273,17,-118.58736273,34.09356836
7633,Amy Way Trail,CA State Parks - Topanga,10003,100030000,TAPO,Auto Generated and Verified,1304,Los Angeles,90290,3rd District,298 Amy Way,ST,,34.08838793,-118.59056012,18,-118.59056012,34.08838793
7924,Backbone Trail,National Parks Service,30012,200190000,TH,Confirmed with NPS data points,1540,Unincorporated Los Angeles County,90265,3rd District,1701 S Kanan Dume Rd,SA,,34.07613002,-118.81594009,19,-118.81594009,34.07613002
7784,Newton Motorway (Cessna Drive),National Parks Service,20092,200920000,TH,Auto Generated and Verified,2243,Unincorporated Los Angeles County,90265,3rd District,Newton Mtwy,ST,,34.07766185,-118.78848679,20,-118.78848679,34.07766185
7788,Nicholas Flat Trail,CA State Parks - Leo Carrillo,10121,101210000,TAPO,Auto Generated and Verified,18,Unincorporated Los Angeles County,90265,3rd District,35789 Pacific Coast Hwy,SA,,34.04683663,-118.93306537,21,-118.93306537,34.04683663
7789,Nicholas Flat Trail,CA State Parks - Leo Carrillo,10121,101210000,TH,Auto Generated and Verified,1483,Unincorporated Los Angeles County,90265,3rd District,33700 Decker School Rd,ST,,34.07061305,-118.90648716,22,-118.90648716,34.07061305
7790,North Grasslands Trail,CA State Parks - Malibu Creek,10127,101270000,TH,Auto Generated and Verified,584,Unincorporated Los Angeles County,91302,3rd District,26951 Mulholland Hwy,ST,,34.10349595,-118.71383463,23,-118.71383463,34.10349595
7791,Kanan - Edison Road,National Parks Service,20071,200710008,TAPO,Auto Generated and Verified,113,Malibu,90265,3rd District,End of Bonsall Drive,SA,,34.03448596,-118.81219041,24,-118.81219041,34.03448596
7794,Park Entrance Road,CA State Parks - Malibu Creek,10129,101290000,TAPO,Auto Generated and Verified,539,Unincorporated Los Angeles County,91302,3rd District,27347 Waycross Dr,SA,,34.0959552,-118.71705847,25,-118.71705847,34.0959552
7799,Peter Strauss Ranch Loop Trail,National Parks Service,20100,201000000,TAPO,Auto Generated and Verified,761,Unincorporated Los Angeles County,91301,3rd District,Waring Drive and Mullholland Hwy,SA,,34.11300414,-118.77951743,26,-118.77951743,34.11300414
7801,Phantom Trail,CA State Parks - Malibu Creek,10132,101320000,TAPO,Auto Generated and Verified,1007,Unincorporated Los Angeles County,91302,3rd District,27663 Mulholland Hwy,ST,,34.10614389,-118.73228731,27,-118.73228731,34.10614389
7802,Polo Field Road,CA State Parks - Will Rogers,10136,101360000,TAPO,Auto Generated and Verified,426,Los Angeles,90272,3rd District,1798 Will Rogers State Park Rd,SA,,34.05460117,-118.51076068,28,-118.51076068,34.05460117
7804,Potrero Road,National Parks Service,20102,201020000,TAPO,Auto Generated and Verified,1333,Malibu,90265,3rd District,Encinal Canyon Rod and Carmichael Rd,SA,,34.05441893,-118.8798419,29,-118.8798419,34.05441893
7805,Potrero Road,National Parks Service,20102,201020000,TAPO,Auto Generated and Verified,1457,Unincorporated Los Angeles County,90265,3rd District,Potrero Rd,SA,,34.06107711,-118.88078973,30,-118.88078973,34.06107711
7808,Ramirez Accessible Trail,National Parks Service,20105,201050000,TAPO,Auto Generated and Verified,246,Unincorporated Los Angeles County,90265,3rd District,None,N,,34.03867392,-118.79401621,31,-118.79401621,34.03867392
7810,Ranch House Trail - Upper,CA State Parks - Will Rogers,10141,101410000,TH,Auto Generated and Verified,449,Los Angeles,90272,3rd District,1677 Will Rogers State Park Rd,SA,,34.05461208,-118.51321084,32,-118.51321084,34.05461208
7811,Red Rock Road,National Parks Service,20106,201060000,TAPO,Auto Generated and Verified,988,Unincorporated Los Angeles County,90290,3rd District,1277 Old Topanga Canyon Rd,ST,,34.1042316,-118.62829936,33,-118.62829936,34.1042316
7812,Red Rock Trail,National Parks Service,20107,201070000,TAPO,Auto Generated and Verified,1508,Unincorporated Los Angeles County,90290,3rd District,,ST,,34.10937642,-118.64114592,34,-118.64114592,34.10937642
7813,Reseda Spur Trail,CA State Parks - Topanga,10142,101420000,TH,Auto Generated and Verified,1611,Los Angeles,91356,3rd District,3001 Reseda Blvd,ST,,34.13047896,-118.55299776,35,-118.55299776,34.13047896
7814,Ridge-Canyon Access Trail,National Parks Service,20108,201080000,TH,Auto Generated and Verified,426,Malibu,90265,3rd District,5555 Busch Dr,SA,,34.03400787,-118.81809649,36,-118.81809649,34.03400787
7815,Rising Sun Trail,National Parks Service,20109,201090000,TH,Auto Generated and Verified,299,Malibu,90265,3rd District,North of Solstice Canyon Rd and Corral Canyon Rd,SA,,34.0390797,-118.74991209,37,-118.74991209,34.0390797
7818,Rocky Oaks Loop Trail,National Parks Service,20112,201120000,TH,Confirmed with NPS data points,1709,Unincorporated Los Angeles County,90265,3rd District,31520 Mulholland Hwy,SA,,34.09706364,-118.81409729,38,-118.81409729,34.09706364
7819,Rustic Canyon Trail,CA State Parks - Topanga,30007,300070000,TAPO,Auto Generated and Verified,415,Los Angeles,90272,3rd District,1666 Will Rogers State Park Rd,SA,,34.0544161,-118.50962649,39,-118.50962649,34.0544161
7820,Santa Maria Canyon Trail,National Parks Service,20114,201140000,TH,Auto Generated and Verified,1457,Unincorporated Los Angeles County,90290,3rd District,3110 N Summit Pointe Dr,ST,,34.13276493,-118.59133685,40,-118.59133685,34.13276493
7823,Morrison Open Space SCE Road Trail,National Parks Service,20115,201150000,TH,Auto Generated and Verified,863,Calabasas,91302,3rd District,6063 Las Virgenes Rd,ST,,34.16761713,-118.7030497,41,-118.7030497,34.16761713
7824,Sostomo Trail,National Parks Service,20118,201180000,TH,Auto Generated and Verified,368,Unincorporated Los Angeles County,90265,3rd District,Roberts Rd,ST,,34.04915457,-118.75414081,42,-118.75414081,34.04915457
7825,South Bay Bicycle Trail,CA State Parks - Will Rogers,10153,101530000,TAPO,Auto Generated and Verified,22,Los Angeles,90272,3rd District,15314 Pacific Coast Hwy,ST,,34.03219919,-118.52879527,43,-118.52879527,34.03219919
7826,South Bay Bicycle Trail,CA State Parks - Will Rogers,10153,101530000,TAPO,Auto Generated and Verified,24,Los Angeles,90272,3rd District,16300 Pacific Coast Hwy,ST,,34.03698547,-118.53916877,44,-118.53916877,34.03698547
7827,South Beach Access Trail,CA State Parks - Leo Carrillo,10154,101540000,TAPO,Auto Generated and Verified,11,Unincorporated Los Angeles County,90265,3rd District,35907 Pacific Coast Hwy,SA,,34.04572343,-118.93436667,45,-118.93436667,34.04572343
7829,Sullivan Ridge Fire Road,CA State Parks - Topanga,10158,101580000,TAPO,Auto Generated and Verified,965,Los Angeles,90272,3rd District,Sullivan Fire Rd,ST,,34.08108023,-118.51629918,46,-118.51629918,34.08108023
7830,Summer Hill Ranch Road,National Parks Service,20119,201190000,TH,Auto Generated and Verified,1219,Unincorporated Los Angeles County,90290,3rd District,2164 Santa Maria Rd,ST,,34.12377639,-118.58805605,47,-118.58805605,34.12377639
7832,Summit-to-Summit - Santa Maria Cyn Connector,National Parks Service,20120,201200000,TH,Auto Generated and Verified,1457,Unincorporated Los Angeles County,90290,3rd District,3110 N Summit Pointe Dr,ST,,34.13276493,-118.59133685,48,-118.59133685,34.13276493
7834,Tapia Spur Trail,CA State Parks - Malibu Creek,10163,101630000,TH,Auto Generated and Verified,471,Unincorporated Los Angeles County,91302,3rd District,Piuma Road and Malibu Canyon Rd,SA,,34.08269423,-118.70637079,49,-118.70637079,34.08269423
7836,Three Park Trail,National Parks Service,20122,201220000,TH,Auto Generated and Verified,1326,Unincorporated Los Angeles County,90265,3rd District,Carmichael Rd,SA,,34.05836011,-118.87920613,50,-118.87920613,34.05836011
7838,Topanga Community House Trail,CA State Parks - Topanga,10168,101680000,TAPO,Auto Generated and Verified,1137,Unincorporated Los Angeles County,90290,3rd District,Topanga Canyon Boulevard and Oakwood Drive,SA,,34.11072135,-118.58875865,51,-118.58875865,34.11072135
7839,Topanga Knoll Trail,CA State Parks - Topanga,10169,101690000,TAPO,Auto Generated and Verified,37,Unincorporated Los Angeles County,90265,3rd District,3989 Topanga Canyon Ln,SA,,34.0398352,-118.58194229,52,-118.58194229,34.0398352
7841,Trancas-Edison Road,National Parks Service,20125,201250000,TAPO,Auto Generated and Verified,903,Unincorporated Los Angeles County,90265,3rd District,,ST,,34.06268162,-118.84240706,53,-118.84240706,34.06268162
7842,Trancas Canyon SCE Road Trail ,CA State Parks - Malibu Creek,30001,300010000,TAPO,Auto Generated and Verified,1619,Unincorporated Los Angeles County,90265,3rd District,1063 Encinal Canyon Rd,SA,,34.08421021,-118.8470213,54,-118.8470213,34.08421021
7844,Tuna Canyon Main Entrance Trail,National Parks Service,20127,201270000,TH,Auto Generated and Verified,1555,Unincorporated Los Angeles County,90290,3rd District,3200 Tuna Canyon Rd,ST,,34.05968704,-118.61654529,55,-118.61654529,34.05968704
7845,Upper Encina Trail,CA State Parks - Topanga,10172,101720000,TAPO,Auto Generated and Verified,1056,Unincorporated Los Angeles County,90290,3rd District,21285 Entrada Rd,SA,,34.09300197,-118.59727006,56,-118.59727006,34.09300197
7846,Upper Rustic Canyon Trail,CA State Parks - Topanga,10173,101730000,TAPO,Auto Generated and Verified,1247,Los Angeles,90272,3rd District,,ST,,34.12139753,-118.54295474,57,-118.54295474,34.12139753
7847,Upper Stunt High Trail,National Parks Service,20128,201280000,TH,Auto Generated and Verified,1558,Unincorporated Los Angeles County,91302,3rd District,1213 Stunt Rd,ST,,34.09084031,-118.657153,58,-118.657153,34.09084031
7849,Wayview Road,CA State Parks - Topanga,10175,101750000,TAPO,Auto Generated and Verified,1261,Unincorporated Los Angeles County,90290,3rd District,20878 Entrada Rd,ST,,34.09200014,-118.58894613,59,-118.58894613,34.09200014
7850,Western Town Road A,National Parks Service,20129,201290000,TH,Auto Generated and Verified,738,Unincorporated Los Angeles County,91301,3rd District,Paramount Ranch Rd,SA,,34.11550054,-118.75525222,60,-118.75525222,34.11550054
7851,Western Town Road B,National Parks Service,20130,201300000,TAPO,Auto Generated and Verified,744,Unincorporated Los Angeles County,91301,3rd District,Paramount Ranch Rd,SA,,34.11533303,-118.75633614,61,-118.75633614,34.11533303
7852,Inspiration Point Loop Trail,CA State Parks - Will Rogers,10083,100830000,TAPO,Auto Generated and Verified,486,Los Angeles,90272,3rd District,1666 Will Rogers State Park Rd,SA,,34.05659278,-118.51230395,62,-118.51230395,34.05659278
7853,Pasture Trail,CA State Parks - Will Rogers,10131,101310000,TH,Auto Generated and Verified,497,Los Angeles,90272,3rd District,1666 Will Rogers State Park Rd,SA,,34.05669021,-118.51278612,63,-118.51278612,34.05669021
7854,Rivas Canyon Trail,CA State Parks - Will Rogers,30015,300150000,TAPO,Auto Generated and Verified,445,Los Angeles,90272,3rd District,1677 Will Rogers State Park Rd,SA,,34.05461471,-118.51335177,64,-118.51335177,34.05461471
7855,Malibu Scenic Overlook Trail,CA State Parks - Leo Carrillo,10110,101760000,TAPO,,18,Unincorporated Los Angeles County,90265,3rd District,35907 Pacific Coast Hwy,SA,,34.04683663,-118.93306537,65,-118.93306537,34.04683663
7858,Yearling Trail,CA State Parks - Malibu Creek,10179,101790000,TAPO,Auto Generated and Verified,838,Unincorporated Los Angeles County,91301,3rd District,28998 Mulholland Hwy,SA,,34.11307697,-118.75112705,66,-118.75112705,34.11307697
7859,Yellow Hill Fire Road,CA State Parks - Leo Carrillo,10180,101800000,TAPO,Auto Generated and Verified,23,Unincorporated Los Angeles County,90265,3rd District,35399 Mulholland Hwy,SA,,34.04629397,-118.93519105,67,-118.93519105,34.04629397
7861,Yucca Trail,National Parks Service,20132,201320000,TH,Auto Generated and Verified,1098,Unincorporated Los Angeles County,91302,3rd District,2002 Stunt Rd,ST,,34.10017112,-118.65397436,68,-118.65397436,34.10017112
7863,Zuma Edison Road,National Parks Service,20135,201350000,TH,Confirmed with NPS data points,1323,Unincorporated Los Angeles County,90265,3rd District,2615 S Kanan Dume Rd,ST,,34.06138582,-118.80406238,69,-118.80406238,34.06138582
7864,Zuma Loop Trail,National Parks Service,20136,201360000,TAPO,Auto Generated and Verified,112,Malibu,90265,3rd District,End of Bonsall Drive,SA,,34.03415266,-118.81225616,70,-118.81225616,34.03415266
7865,Zuma Ridge Motorway,National Parks Service,20137,201370000,TH,Auto Generated and Verified,426,Malibu,90265,3rd District,5555 Busch Dr,SA,,34.03400787,-118.81809649,71,-118.81809649,34.03400787
7867,Solstice Canyon Trail,National Parks Service,20117,201170000,TH,Added From NPS ParkEntrancePts.shp,51,Malibu,90265,3rd District,3998 Solstice Canyon Rd,SA,,34.03494817,-118.74450966,72,-118.74450966,34.03494817
7868,Nicholas Ridge Trail,CA State Parks - Leo Carrillo,10126,,TAPO,Added per Dale's request,1483,Unincorporated Los Angeles County,90265,3rd District,33700 Decker School Rd,ST,,34.07061305,-118.90648716,73,-118.90648716,34.07061305
7870,Piuma Connector Trail, ,10135,101350000,TAPO,Added From NPS ParkEntrancePts.shp,493,Unincorporated Los Angeles County,91302,3rd District,Mesa Peak Tractor Way and Malibu Canyon Rd,SA,,34.07994189,-118.70385553,74,-118.70385553,34.07994189
7876,Mulholland Drive, ,20090,200900002,TH,Added From hard copy maps and state parks data,1879,Los Angeles,90049,3rd District,17460 Mulholland Dr,SA,,34.12904371,-118.51352284,75,-118.51352284,34.12904371
7879,Bulldog Motorway,CA State Parks - Malibu Creek,30005,300050009,TAPO,Auto Generated and Verified,690,Unincorporated Los Angeles County,91301,3rd District,28848 Lake Vista Dr,SA,,34.09715876,-118.74874438,76,-118.74874438,34.09715876
7880,California Coastal Trail,National Parks Service,10187,101870005,TAPO,Auto Generated and Verified,8,Malibu,90265,3rd District,23314 Malibu Colony Rd,SA,,34.0315031,-118.68185631,77,-118.68185631,34.0315031
7884,Backbone Trail - Piuma Ridge, ,10018,100180000,TAPO,,485,Unincorporated Los Angeles County,91302,3rd District,897 Las Virgenes Rd,SA,,34.08316434,-118.70550111,78,-118.70550111,34.08316434
7885,Nicholas Flat Trail, ,10121,101210000,TAPO,,13,Unincorporated Los Angeles County,90265,3rd District,35789 Pacific Coast Hwy,SA,,34.04620493,-118.9337354,79,-118.9337354,34.04620493
7886,Pipe Corral Trail,CA State Parks - Will Rogers,10134,101340000,TAPO,Auto Generated and Verified,430,Los Angeles,90272,3rd District,14400 Villa Woods Pl,SA,,34.05453293,-118.51178947,80,-118.51178947,34.05453293
7887,Talepop Trail, ,10162,101620000,TAPO,,549,Unincorporated Los Angeles County,91302,3rd District,27357 Waycross Dr,SA,,34.09675616,-118.71632979,81,-118.71632979,34.09675616
7888,Winfield Trail, ,10177,101770000,TAPO,,1184,Unincorporated Los Angeles County,90290,3rd District,Entrada Rd,SA,,34.09340166,-118.587802,82,-118.587802,34.09340166
7889,Temescal Canyon Trail, ,30014,300140000,TAPO,,325,Los Angeles,90272,3rd District,965 Temescal Canyon Rd,SA,,34.05316267,-118.5285875,83,-118.5285875,34.05316267
7890,Bent Arrow Trail, ,10030,100300000,TAPO,,1724,Los Angeles,91356,3rd District,3001 Reseda Blvd,ST,,34.12863336,-118.553766,84,-118.553766,34.12863336
7891,Temescal Ridge Trail, ,30013,300130001,TAPO,,1184,Unincorporated Los Angeles County,90290,3rd District,Entrada Rd,ST,,34.09340166,-118.587802,85,-118.587802,34.09340166
7892,Chaparral Trail, ,10044,100440000,TAPO,,549,Unincorporated Los Angeles County,91302,3rd District,27359 Waycross Dr,SA,,34.0967567,-118.71623806,86,-118.71623806,34.0967567
7893,Lost Cabin Trail, ,10107,101070000,TAPO,,549,Unincorporated Los Angeles County,91302,3rd District,27359 Waycross Dr,SA,,34.0967567,-118.71623806,87,-118.71623806,34.0967567
7894,Mott Road, ,10114,101140000,TAPO,,549,Unincorporated Los Angeles County,91302,3rd District,27359 Waycross Dr,SA,,34.0967567,-118.71623806,88,-118.71623806,34.0967567
7895,Liberty Canyon Fire Road,CA State Parks - Malibu Creek,10097,100970000,TH,Auto Generated and Verified,733,Agoura Hills,91301,3rd District,27353 Park Vista Rd,ST,,34.12771455,-118.72398417,89,-118.72398417,34.12771455
7896,Phantom Trail,CA State Parks - Malibu Creek,10132,101320000,TAPO,Added From NPS ParkEntrancePts.shp,733,Agoura Hills,91301,3rd District,27353 Park Vista Rd,ST,,34.12771455,-118.72398417,90,-118.72398417,34.12771455
7897,Tapia Spur Trail, ,10163,101630000,TAPO,,549,Unincorporated Los Angeles County,91302,3rd District,27359 Waycross Dr,SA,,34.0967567,-118.71623806,91,-118.71623806,34.0967567
7898,Bulldog Motorway, ,30005,300050009,TAPO,,690,Unincorporated Los Angeles County,91302,3rd District,27359 Waycross Dr,SA,,34.09715876,-118.74874438,92,-118.74874438,34.09715876
7899,Backbone Trail - Mesa Peak Motorway, ,10014,100140000,TAPO,,472,Unincorporated Los Angeles County,91302,3rd District,26261 Piuma Rd,SA,,34.0820577,-118.70432725,93,-118.70432725,34.0820577
7900,Mott Road,CA State Parks - Malibu Creek,10114,101140000,TAPO,Auto Generated and Verified,539,Unincorporated Los Angeles County,91302,3rd District,27347 Waycross Dr,SA,,34.0959552,-118.71705847,94,-118.71705847,34.0959552
7901,Tapia Spur Trail,CA State Parks - Malibu Creek,10163,101630000,TAPO,Auto Generated and Verified,539,Unincorporated Los Angeles County,91302,3rd District,27347 Waycross Dr,SA,,34.0959552,-118.71705847,95,-118.71705847,34.0959552
7902,California Coastal Trail,National Parks Service,10187,101870008,TAPO,Auto Generated and Verified,10,Unincorporated Los Angeles County,90265,3rd District,18652 Pacific Coast Hwy,SA,,34.0386948,-118.58163761,96,-118.58163761,34.0386948
7903,Inspiration Point Loop ADA Trail,CA State Parks - Will Rogers,10183,101830000,TAPO,Auto Generated and Verified,485,Los Angeles,90272,3rd District,1666 Will Rogers State Park Rd,SA,,34.05622642,-118.51297925,97,-118.51297925,34.05622642
7905,Kanan - Edison Road,National Parks Service,20071,200710001,TAPO,Auto Generated and Verified,493,Malibu,90265,3rd District,,ST,,34.03415825,-118.80035747,98,-118.80035747,34.03415825
7906,Backbone Trail,National Parks Service - Topanga,30012,200060000,TH,Auto Generated and Verified,1184,Unincorporated Los Angeles County,90290,3rd District,20801 Entrada Rd,SA,,34.09359514,-118.58745787,99,-118.58745787,34.09359514
7907,Backbone Trail,National Parks Service,30012,200070000,TH,Auto Generated and Verified,1397,Unincorporated Los Angeles County,90265,3rd District,1063 Encinal Canyon Rd,SA,,34.08509415,-118.86148466,100,-118.86148466,34.08509415
7908,Backbone Trail,CA State Parks - Topanga,30012,100090000,TAPO,Auto Generated and Verified,2397,Unincorporated Los Angeles County,90290,3rd District,24745 Saddle Peak Rd,SA,,34.08204765,-118.64411248,101,-118.64411248,34.08204765
7909,Backbone Trail,CA State Parks - Topanga,30012,100090000,TAPO,Auto Generated and Verified,2353,Unincorporated Los Angeles County,90290,3rd District,23809 Saddle Peak Rd,SA,,34.08384526,-118.63591572,102,-118.63591572,34.08384526
7910,Backbone Trail,CA State Parks - Topanga,30012,100100000,TAPO,Auto Generated and Verified,2353,Unincorporated Los Angeles County,90290,3rd District,23809 Saddle Peak Rd,SA,,34.08384526,-118.63591572,103,-118.63591572,34.08384526
7911,Backbone Trail,CA State Parks - Topanga,30012,100100000,TH,Auto Generated and Verified,790,Unincorporated Los Angeles County,90290,3rd District,325 Old Topanga Canyon Rd,ST,,34.09304197,-118.60920706,104,-118.60920706,34.09304197
7912,Backbone Trail,National Parks Service,30012,200100000,TH,Confirmed with NPS data points,2044,Unincorporated Los Angeles County,90265,3rd District,1770 Latigo Canyon Rd,SA,,34.07790737,-118.79391645,105,-118.79391645,34.07790737
7913,Backbone Trail,CA State Parks - Will Rogers,30012,100120000,TAPO,Auto Generated and Verified,426,Los Angeles,90272,3rd District,1666 Will Rogers State Park Rd,SA,,34.0543065,-118.51317308,106,-118.51317308,34.0543065
7914,Backbone Trail,CA State Parks - Malibu Creek,30012,100140000,TH,Auto Generated and Verified,1992,Unincorporated Los Angeles County,90265,3rd District,Castro Peak Mtwy,SA,,34.08200797,-118.75840606,107,-118.75840606,34.08200797
7915,Backbone Trail,National Parks Service,30012,200120000,TH,Confirmed with NPS data points,1540,Unincorporated Los Angeles County,90265,3rd District,1701 S Kanan Dume Rd,SA,,34.07613002,-118.81594009,108,-118.81594009,34.07613002
7916,Backbone Trail,National Parks Service,30012,200120000,TH,Confirmed with NPS data points,2044,Unincorporated Los Angeles County,90265,3rd District,1770 Latigo Canyon Rd,SA,,34.07790737,-118.79391645,109,-118.79391645,34.07790737
7917,Backbone Trail,CA State Parks - Topanga,30012,100160000,TH,Auto Generated and Verified,790,Unincorporated Los Angeles County,90290,3rd District,325 Old Topanga Canyon Rd,ST,,34.09304197,-118.60920706,110,-118.60920706,34.09304197
7918,Backbone Trail,CA State Parks - Topanga,30012,100070000,TAPO,Auto Generated and Verified,851,Unincorporated Los Angeles County,90290,3rd District,21943 Entrada Rd,SA,,34.0945216,-118.60088718,111,-118.60088718,34.0945216
7919,Backbone Trail,CA State Parks - Malibu Creek,30012,100180000,TH,Auto Generated and Verified,463,Unincorporated Los Angeles County,91302,3rd District,26278 Piuma Rd,SA,,34.08180404,-118.70337732,112,-118.70337732,34.08180404
7920,Backbone Trail,CA State Parks - Malibu Creek,30012,300020000,TH,Auto Generated and Verified,2374,Unincorporated Los Angeles County,90290,3rd District,24839 Saddle Peak Rd,SA,,34.08127044,-118.64508228,113,-118.64508228,34.08127044
7921,Backbone Trail,National Parks Service,30012,200160000,TH,Auto Generated and Verified,2374,Unincorporated Los Angeles County,90290,3rd District,24839 Saddle Peak Rd,SA,,34.08127044,-118.64508228,114,-118.64508228,34.08127044
7922,Backbone Trail,National Parks Service,30012,200160000,TAPO,Auto Generated and Verified,2397,Unincorporated Los Angeles County,90290,3rd District,24745 Saddle Peak Rd,SA,,34.08204765,-118.64411248,115,-118.64411248,34.08204765
7923,Backbone Trail,CA State Parks - Malibu Creek,30012,300040000,TH,Auto Generated and Verified,1992,Unincorporated Los Angeles County,90265,3rd District,Castro Peak Mtwy,SA,,34.08200797,-118.75840606,116,-118.75840606,34.08200797
7634,Ann Skager Trail,CA State Parks - Malibu Creek,10004,100040000,TAPO,Auto Generated and Verified,540,Unincorporated Los Angeles County,91302,3rd District,27371 Waycross Dr,SA,,34.09632877,-118.71438438,117,-118.71438438,34.09632877
7635,Arroyo Sequit Entrance Road,National Parks Service,20003,200030000,TH,Auto Generated and Verified,1095,Unincorporated Los Angeles County,90265,3rd District,34136 Mulholland Hwy,SA,,34.08919965,-118.89083761,118,-118.89083761,34.08919965
7636,Arroyo Sequit Loop Trail,National Parks Service,20004,200040000,TH,Auto Generated and Verified,1156,Unincorporated Los Angeles County,90265,3rd District,34136 Mullholland Hwy,SA,,34.08629292,-118.89096112,119,-118.89096112,34.08629292
7637,Arroyo Sequit Loop Trail,National Parks Service,20004,200040000,TH,Auto Generated and Verified,1156,Unincorporated Los Angeles County,90265,3rd District,34136 Mullholland Hwy,SA,,34.08657347,-118.89016199,120,-118.89016199,34.08657347
7638,Backbone Trail - Connector,National Parks Service,20005,200050000,TH,Confirmed with NPS data points,1576,Unincorporated Los Angeles County,90265,3rd District,1129 S Kanan Dume Rd,ST,,34.07871162,-118.81804678,121,-118.81804678,34.07871162
7639,Backbone Trail - Encinal to Mulholland,National Parks Service,20007,200070000,TH,Auto Generated and Verified,1397,Unincorporated Los Angeles County,90265,3rd District,1063 Encinal Canyon Rd,SA,,34.08509415,-118.86148466,122,-118.86148466,34.08509415
7642,Backbone Trail - Fossil Ridge,CA State Parks - Topanga,10009,100090000,TAPO,Auto Generated and Verified,2397,Unincorporated Los Angeles County,90290,3rd District,24745 Saddle Peak Rd,SA,,34.08204765,-118.64411248,123,-118.64411248,34.08204765
7643,Backbone Trail - Fossil Ridge,CA State Parks - Topanga,10009,100090000,TAPO,Auto Generated and Verified,2353,Unincorporated Los Angeles County,90290,3rd District,23809 Saddle Peak Rd,SA,,34.08384526,-118.63591572,124,-118.63591572,34.08384526
7644,Backbone Trail - Hondo Canyon Trail,CA State Parks - Topanga,10010,100100000,TAPO,Auto Generated and Verified,2353,Unincorporated Los Angeles County,90290,3rd District,23809 Saddle Peak Rd,SA,,34.08384526,-118.63591572,125,-118.63591572,34.08384526
7645,Backbone Trail - Hondo Canyon Trail,CA State Parks - Topanga,10010,100100000,TH,Auto Generated and Verified,790,Unincorporated Los Angeles County,90290,3rd District,325 Old Topanga Canyon Rd,ST,,34.09304197,-118.60920706,126,-118.60920706,34.09304197
7646,Backbone Trail - Latigo Canyon,National Parks Service,20010,200100000,TH,Confirmed with NPS data points,2044,Unincorporated Los Angeles County,90265,3rd District,1770 Latigo Canyon Rd,SA,,34.07790737,-118.79391645,127,-118.79391645,34.07790737
7647,Backbone Trail - Lower Betty Rogers,CA State Parks - Will Rogers,10012,100120000,TAPO,Auto Generated and Verified,426,Los Angeles,90272,3rd District,1666 Will Rogers State Park Rd,SA,,34.0543065,-118.51317308,128,-118.51317308,34.0543065
7648,Backbone Trail - Upper Solstice Canyon,CA State Parks - Malibu Creek,30004,100140000,TH,Auto Generated and Verified,1992,Unincorporated Los Angeles County,90265,3rd District,Castro Peak Mtwy,SA,,34.08200797,-118.75840606,129,-118.75840606,34.08200797
7649,Backbone Trail - Mulholland to Etz Meloy,National Parks Service,20011,200110000,TAPO,Auto Generated and Verified,1622,Unincorporated Los Angeles County,90265,3rd District,33286 Mulholland Hwy,ST,,34.09166241,-118.86713927,130,-118.86713927,34.09166241
7650,Backbone Trail - Newton Canyon,National Parks Service,20012,200120000,TH,Confirmed with NPS data points,1540,Unincorporated Los Angeles County,90265,3rd District,1701 S Kanan Dume Rd,SA,,34.07613002,-118.81594009,131,-118.81594009,34.07613002
7651,Backbone Trail - Newton Canyon,National Parks Service,20012,200120000,TH,Confirmed with NPS data points,2044,Unincorporated Los Angeles County,90265,3rd District,1770 Latigo Canyon Rd,SA,,34.07790737,-118.79391645,132,-118.79391645,34.07790737
7652,Backbone Trail - Topanga School Trail,CA State Parks - Topanga,10016,100160000,TH,Auto Generated and Verified,790,Unincorporated Los Angeles County,90290,3rd District,325 Old Topanga Canyon Rd,ST,,34.09304197,-118.60920706,133,-118.60920706,34.09304197
7653,Backbone Trail - Dead Horse Trail,CA State Parks - Topanga,10007,100070000,TAPO,Auto Generated and Verified,851,Unincorporated Los Angeles County,90290,3rd District,21943 Entrada Rd,SA,,34.0945216,-118.60088718,134,-118.60088718,34.0945216
7654,Backbone Trail - Piuma Connector Trail,National Parks Service,10017,200140000,TAPO,Auto Generated and Verified,500,Unincorporated Los Angeles County,91302,3rd District,,SA,,34.08018216,-118.70424849,135,-118.70424849,34.08018216
7656,Backbone Trail - Piuma Ridge,CA State Parks - Malibu Creek,10018,100180000,TH,Auto Generated and Verified,463,Unincorporated Los Angeles County,91302,3rd District,26278 Piuma Rd,SA,,34.08180404,-118.70337732,136,-118.70337732,34.08180404
7658,Backbone Trail - Saddle Peak,CA State Parks - Malibu Creek,30002,300020000,TH,Auto Generated and Verified,2374,Unincorporated Los Angeles County,90290,3rd District,24839 Saddle Peak Rd,SA,,34.08127044,-118.64508228,137,-118.64508228,34.08127044
7659,Backbone Trail - Topanga Ridge Motorway,National Parks Service,20016,200160000,TH,Auto Generated and Verified,2374,Unincorporated Los Angeles County,90290,3rd District,24839 Saddle Peak Rd,SA,,34.08127044,-118.64508228,138,-118.64508228,34.08127044
7660,Backbone Trail - Topanga Ridge Motorway,National Parks Service,20016,200160000,TAPO,Auto Generated and Verified,2397,Unincorporated Los Angeles County,90290,3rd District,24745 Saddle Peak Rd,SA,,34.08204765,-118.64411248,139,-118.64411248,34.08204765
7661,Backbone Trail - Trancas Canyon,CA State Parks - Malibu Creek,30003,300030000,TH,Auto Generated and Verified,1397,Unincorporated Los Angeles County,90265,3rd District,1063 Encinal Canyon Rd,SA,,34.08509415,-118.86148466,140,-118.86148466,34.08509415
7664,Backbone Trail - Upper Solstice Canyon,CA State Parks - Malibu Creek,30004,300040000,TH,Auto Generated and Verified,1992,Unincorporated Los Angeles County,90265,3rd District,Castro Peak Mtwy,SA,,34.08200797,-118.75840606,141,-118.75840606,34.08200797
7665,Backbone Trail - Zuma Canyon,National Parks Service,20019,200190000,TH,Confirmed with NPS data points,1540,Unincorporated Los Angeles County,90265,3rd District,1701 S Kanan Dume Rd,SA,,34.07613002,-118.81594009,142,-118.81594009,34.07613002
7666,Backdrop Trail,National Parks Service,20021,200210000,TAPO,Auto Generated and Verified,836,Unincorporated Los Angeles County,91301,3rd District,2900 Cornell Rd,SA,,34.11996225,-118.76161382,143,-118.76161382,34.11996225
7667,Barn Service Road,CA State Parks - Will Rogers,10026,100260000,TAPO,Auto Generated and Verified,429,Los Angeles,90272,3rd District,1798 Will Rogers State Park Rd,SA,,34.05453782,-118.5115503,144,-118.5115503,34.05453782
7668,Beverly Drive -Franklin Canyon Connector Trail,National Parks Service,20022,200220000,TAPO,Auto Generated and Verified,809,Unincorporated Los Angeles County,90210,3rd District,2054 N Beverly Dr,ST,,34.10863802,-118.41711857,145,-118.41711857,34.10863802
7671,Botany Trail,National Parks Service,20025,200250000,TAPO,Auto Generated and Verified,1326,Unincorporated Los Angeles County,90265,3rd District,Carmichael Rd,SA,,34.05805072,-118.87953786,146,-118.87953786,34.05805072
7673,Calabasas - Cold Creek Trail,National Parks Service,20030,200300000,TAPO,Auto Generated and Verified,726,Unincorporated Los Angeles County,91302,3rd District,1401 Cold Canyon Rd,ST,,34.09244337,-118.67987643,147,-118.67987643,34.09244337
7675,Calabasas Peak Motorway,National Parks Service,20031,200310000,TH,Auto Generated and Verified,1252,Unincorporated Los Angeles County,91302,3rd District,1658 Stunt Rd,ST,,34.09530499,-118.64953823,148,-118.64953823,34.09530499
7677,California Coastal Trail,National Parks Service,10187,101870000,TAPO,Auto Generated and Verified,6,Malibu,90265,3rd District,29377 Cliffside Drive,ST,,34.00241601,-118.80509988,149,-118.80509988,34.00241601
7678,California Coastal Trail,National Parks Service,10187,101870000,TAPO,Auto Generated and Verified,25,Los Angeles,90272,3rd District,17301 Pacific Coast Hwy,SA,,34.03811072,-118.55581916,150,-118.55581916,34.03811072
7679,California Coastal Trail,National Parks Service,10187,101870000,TAPO,Auto Generated and Verified,25,Malibu,90265,3rd District,Westward Beach Rd,SA,,34.00217237,-118.80836255,151,-118.80836255,34.00217237
7680,California Coastal Trail,National Parks Service,10187,101870000,TAPO,Auto Generated and Verified,28,Unincorporated Los Angeles County,90265,3rd District,36424 Pacific Coast Hwy,SA,,34.04427179,-118.93810855,152,-118.93810855,34.04427179
7682,Castro Motorway,CA State Parks - Malibu Creek,30006,300060004,TH,Auto Generated and Verified,1992,Unincorporated Los Angeles County,90265,3rd District,Castro Peak Mtwy,SA,,34.08200797,-118.75840606,153,-118.75840606,34.08200797
7684,Charmichael Knob Trail,National Parks Service,20036,200360000,TAPO,Auto Generated and Verified,1394,Unincorporated Los Angeles County,90265,3rd District,Carmichael Rd,SA,,34.05562738,-118.88027452,154,-118.88027452,34.05562738
7685,Charmichael Knob Trail,National Parks Service,20036,200360000,TAPO,Auto Generated and Verified,1333,Malibu,90265,3rd District,Encinal Canyon Road and Carmichael Road,SA,,34.05441893,-118.8798419,155,-118.8798419,34.05441893
7686,Charmichael Road,National Parks Service,20037,200370000,TH,Auto Generated and Verified,1326,Unincorporated Los Angeles County,90265,3rd District,2619 Encinal Canyon Rd,SA,,34.05836011,-118.87920613,156,-118.87920613,34.05836011
7687,Cheeseboro Canyon Trail,National Parks Service,20038,200380000,TH,Auto Generated and Verified,1011,Unincorporated Los Angeles County,91301,3rd District,Cheseboro Canyon Rd and Cheseboro Road,SA,,34.15655231,-118.73083841,157,-118.73083841,34.15655231
7688,Chumash Indian Trail,National Parks Service,20040,200400000,TH,Auto Generated and Verified,126,Malibu,90265,3rd District,6357 Sea Star Drive,ST,,34.03376859,-118.83919916,158,-118.83919916,34.03376859
7689,Cii Debora Spur Trail,CA State Parks - Topanga,20041,200410000,TAPO,Auto Generated and Verified,1544,Los Angeles,90272,3rd District,16701 Via la Costa,SA,,34.0763032,-118.54620041,159,-118.54620041,34.0763032
7690,Cistern Trail,CA State Parks - Malibu Creek,10046,100460000,TAPO,Auto Generated and Verified,1015,Unincorporated Los Angeles County,91302,3rd District,27637 Mulholland Hwy,ST,,34.10528844,-118.73170987,160,-118.73170987,34.10528844
7691,Clark Ranch Road,National Parks Service,20042,200420000,TH,Auto Generated and Verified,1378,Unincorporated Los Angeles County,90265,3rd District,1091 Encinal Canyon Rd,SA,,34.08561311,-118.86277104,161,-118.86277104,34.08561311
7692,Cold Creek Trail,National Parks Service,20045,200450000,TAPO,Auto Generated and Verified,1005,Unincorporated Los Angeles County,91302,3rd District,2121 McKain St,ST,,34.09904147,-118.65767,162,-118.65767,34.09904147
7693,Coyote Canyon Trail,National Parks Service,20048,200480000,TAPO,Auto Generated and Verified,756,Unincorporated Los Angeles County,91301,3rd District,Paramount Ranch Rd,SA,,34.11579905,-118.75716839,163,-118.75716839,34.11579905
7696,Crags Road,CA State Parks - Malibu Creek,10048,100480000,TAPO,Auto Generated and Verified,540,Unincorporated Los Angeles County,91302,3rd District,1670 Las Virgenes Rd,SA,,34.09632877,-118.71438438,164,-118.71438438,34.09632877
7697,Crags Road,CA State Parks - Malibu Creek,10048,100480033,TAPO,Auto Generated and Verified,774,Unincorporated Los Angeles County,91301,3rd District,28902 Crags Dr,ST,,34.10244193,-118.75446119,165,-118.75446119,34.10244193
7698,Deer Grass Trail,National Parks Service,20051,200510001,TH,Auto Generated and Verified,1098,Unincorporated Los Angeles County,91302,3rd District,2002 Stunt Rd,ST,,34.10017112,-118.65397436,166,-118.65397436,34.10017112
7699,Discovery Trail,National Parks Service,20053,200530000,TAPO,Auto Generated and Verified,610,Unincorporated Los Angeles County,90210,3rd District,1648 Lake Dr,SA,,34.10633431,-118.41529091,167,-118.41529091,34.10633431
7700,Discovery Trail,National Parks Service,20053,200530000,TAPO,Auto Generated and Verified,635,Unincorporated Los Angeles County,90210,3rd District,1824 Lake Dr,SA,,34.1088751,-118.41548164,168,-118.41548164,34.1088751
7701,Dome Trail,CA State Parks - Topanga,10056,100560000,TAPO,Auto Generated and Verified,851,Unincorporated Los Angeles County,90290,3rd District,21943 Entrada Rd,SA,,34.0945216,-118.60088718,169,-118.60088718,34.0945216
7702,Dorothy Drive,National Parks Service,20054,200540000,TH,Auto Generated and Verified,471,Unincorporated Los Angeles County,91302,3rd District,Piuma Road and Malibu Canyon Rd,SA,,34.08269423,-118.70637079,170,-118.70637079,34.08269423
7703,Dorothy Drive,National Parks Service,20054,200540003,TAPO,Auto Generated and Verified,502,Unincorporated Los Angeles County,91302,3rd District,911 Las Virgenes Rd,SA,,34.08350828,-118.70499218,171,-118.70499218,34.08350828
7705,Dume Canyon Motorway,National Parks Service,20055,200550000,TAPO,Confirmed with NPS data points,1126,Unincorporated Los Angeles County,90265,3rd District,2998 S Kanan Dume Rd,ST,,34.05622044,-118.79841735,172,-118.79841735,34.05622044
7708,East Meadow Trail,National Parks Service,20056,200560000,TAPO,Auto Generated and Verified,1268,Malibu,90265,3rd District,3620 Noranda Ln,SA,,34.05398272,-118.8778504,173,-118.8778504,34.05398272
7710,East Topanga Fire Road,CA State Parks - Topanga,10059,100590013,TAPO,Auto Generated and Verified,1191,Los Angeles,90290,3rd District,20800 Entrada Rd,SA,,34.09336192,-118.58731966,174,-118.58731966,34.09336192
7712,Ed Edelman North Loop Trail,National Parks Service,20058,200580000,TH,Auto Generated and Verified,1300,Unincorporated Los Angeles County,90290,3rd District,2747 N Topanga Canyon Blvd,SA,,34.12736966,-118.59884359,175,-118.59884359,34.12736966
7714,Entrada Connector Trail,CA State Parks - Topanga,10063,100630000,TAPO,Auto Generated and Verified,851,Unincorporated Los Angeles County,90290,3rd District,21943 Entrada Rd,SA,,34.0945216,-118.60088718,176,-118.60088718,34.0945216
7715,Farmer Ridge Fire Road,CA State Parks - Topanga,10064,100640000,TH,Auto Generated and Verified,1560,Los Angeles,90272,3rd District,18664 Mulholland Dr,ST,,34.12756597,-118.54204606,177,-118.54204606,34.12756597
7716,Fire Road Twenty-nine,National Parks Service - Topanga,20062,200620000,TH,Auto Generated and Verified,1595,Los Angeles,91356,3rd District,3001 Reseda Blvd,ST,,34.13130356,-118.55316856,178,-118.55316856,34.13130356
7717,Glade Trail,CA State Parks - Topanga,20063,100700000,TH,Confirmed with NPS data points,1709,Unincorporated Los Angeles County,90265,3rd District,31520 Mulholland Hwy,SA,,34.09706364,-118.81409729,179,-118.81409729,34.09706364
7718,Glen Spur Trail,CA State Parks - Topanga,10071,100710000,TAPO,Auto Generated and Verified,851,Unincorporated Los Angeles County,90290,3rd District,21943 Entrada Rd,SA,,34.09452162,-118.60088719,180,-118.60088719,34.09452162
7719,Glen Trail,CA State Parks - Topanga,10072,100720000,TH,Auto Generated and Verified,848,Unincorporated Los Angeles County,90290,3rd District,21943 Entrada Rd,SA,,34.09478028,-118.60075762,181,-118.60075762,34.09478028
7720,Grassland Trail,CA State Parks - Malibu Creek,10074,100740000,TH,Auto Generated and Verified,584,Unincorporated Los Angeles County,91302,3rd District,26951 Mulholland Hwy,ST,,34.10349595,-118.71383463,182,-118.71383463,34.10349595
7721,Hacienda Trail,National Parks Service,20064,200640000,TAPO,Auto Generated and Verified,773,Unincorporated Los Angeles County,91301,3rd District,Paramount Ranch Drive and Cornell Road,SA,,34.11664663,-118.75766873,183,-118.75766873,34.11664663
7723,Hastain Trail,National Parks Service,20065,200650000,TH,Auto Generated and Verified,676,Unincorporated Los Angeles County,90210,3rd District,1999 Lake Dr,SA,,34.11156355,-118.4151829,184,-118.4151829,34.11156355
7724,Hastain Trail Connector,National Parks Service,20066,200660000,TAPO,Auto Generated and Verified,623,Unincorporated Los Angeles County,90210,3rd District,1748 Lake Dr,SA,,34.10776616,-118.41552265,185,-118.41552265,34.10776616
7726,Henry Ridge Motorway,CA State Parks - Topanga,10077,100770000,TAPO,Auto Generated and Verified,1210,Unincorporated Los Angeles County,90290,3rd District,21998 Gold Stone Rd,ST,,34.09625097,-118.60839406,186,-118.60839406,34.09625097
7925,Backbone Trail,CA State Parks - Topanga,30012,101180000,TAPO,Auto Generated and Verified,1184,Unincorporated Los Angeles County,90290,3rd District,20800 Entrada Rd,SA,,34.09359514,-118.58745787,187,-118.58745787,34.09359514
7727,Hillside Drive Connector Trail,CA State Parks - Topanga,10080,100800000,TAPO,Auto Generated and Verified,1125,Unincorporated Los Angeles County,90290,3rd District,20610 Hillside Dr,ST,,34.09972497,-118.58690706,188,-118.58690706,34.09972497
7728,Hondo Canyon Trail Connector,CA State Parks - Topanga,10081,100810000,TH,Auto Generated and Verified,2355,Unincorporated Los Angeles County,90290,3rd District,23809 Saddle Peak Rd,ST,,34.08370135,-118.63602833,189,-118.63602833,34.08370135
7731,Jungle Trail,National Parks Service,20070,200700000,TAPO,Auto Generated and Verified,809,Unincorporated Los Angeles County,91301,3rd District,3619 Cornell Rd,ST,,34.12530143,-118.7499441,190,-118.7499441,34.12530143
7732,Kanan - Edison Road,National Parks Service,20071,200710000,TAPO,Confirmed with NPS data points,1126,Unincorporated Los Angeles County,90265,3rd District,2998 S Kanan Dume Rd,ST,,34.05622044,-118.79841735,191,-118.79841735,34.05622044
7733,King Gillette Fire Road,CA State Parks - Malibu Creek,10089,100890000,TH,Auto Generated and Verified,658,Unincorporated Los Angeles County,91302,3rd District,Mullholland Highway and Stokes Canyon Rd,SA,,34.09985715,-118.70257291,192,-118.70257291,34.09985715
7735,Las Virgenes Trail,CA State Parks - Malibu Creek,10091,100910000,TH,Auto Generated and Verified,610,Unincorporated Los Angeles County,91302,3rd District,2521 Lad Virgenes Rd,ST,,34.10894653,-118.71417366,193,-118.71417366,34.10894653
7736,Las Virgenes Trail,CA State Parks - Malibu Creek,10091,100910000,TH,Auto Generated and Verified,697,Calabasas,91301,3rd District,3713 Lost Hills Rd,SA,,34.12655341,-118.70680531,194,-118.70680531,34.12655341
7737,Las Virgenes View Trail,National Parks Service,20073,200730000,TH,Auto Generated and Verified,602,Calabasas,91302,3rd District,26885 Mulholland Hwy,SA,,34.10418717,-118.71116974,195,-118.71116974,34.10418717
7739,Leo Carrillo Bluff Trail,CA State Parks - Leo Carrillo,10093,100930000,TAPO,Auto Generated and Verified,8,Unincorporated Los Angeles County,90265,3rd District,35998 Pacific Coast Hwy,SA,,34.04443029,-118.93459393,196,-118.93459393,34.04443029
7740,Leo Carrillo Bluff Trail,CA State Parks - Leo Carrillo,10093,100930000,TAPO,Auto Generated and Verified,28,Unincorporated Los Angeles County,90265,3rd District,36424 Pacific Coast Hwy,SA,,34.04427179,-118.93810855,197,-118.93810855,34.04427179
7741,Leo Carrillo Bluff Trail,CA State Parks - Leo Carrillo,10093,100930000,TAPO,Auto Generated and Verified,50,Unincorporated Los Angeles County,90265,3rd District,36348 Pacific Coast Hwy,SA,,34.04430796,-118.93752822,198,-118.93752822,34.04430796
7742,Leo Carrillo Entrance Road,CA State Parks - Leo Carrillo,10094,100940000,TAPO,Auto Generated and Verified,18,Unincorporated Los Angeles County,90265,3rd District,35789 Pacific Coast Hwy,SA,,34.04683663,-118.93306537,199,-118.93306537,34.04683663
7744,Liberty Canyon Fire Road,CA State Parks - Malibu Creek,10097,100970000,TH,Auto Generated and Verified,610,Unincorporated Los Angeles County,91302,3rd District,2521 Lad Virgenes Rd,ST,,34.10894653,-118.71417366,200,-118.71417366,34.10894653
7745,Liberty Canyon Fire Road,CA State Parks - Malibu Creek,10097,100970000,TH,Auto Generated and Verified,733,Agoura Hills,91301,3rd District,27353 Park Vista Rd,ST,,34.12771455,-118.72398417,201,-118.72398417,34.12771455
7746,Lifeguard Tower Access Road A,CA State Parks - Leo Carrillo,10099,100990000,TAPO,Auto Generated and Verified,51,Unincorporated Los Angeles County,90265,3rd District,36260 Pacific Coast Hwy,SA,,34.04448333,-118.93680471,202,-118.93680471,34.04448333
7747,Lifeguard Tower Access Road B,CA State Parks - Leo Carrillo,10100,101000000,TAPO,Auto Generated and Verified,41,Unincorporated Los Angeles County,90265,3rd District,36160 Pacific Coast Hwy,SA,,34.04459742,-118.93595011,203,-118.93595011,34.04459742
7748,Lofgren Trail,CA State Parks - Topanga,10101,101010000,TH,Auto Generated and Verified,1202,Unincorporated Los Angeles County,90290,3rd District,20800 Entrada Rd,SA,,34.09298097,-118.58889206,204,-118.58889206,34.09298097
7749,Lookout Road,CA State Parks - Malibu Creek,10102,101020000,TAPO,Auto Generated and Verified,1054,Unincorporated Los Angeles County,91301,3rd District,1500 Lookout Dr,ST,,34.1002732,-118.7580079,205,-118.7580079,34.1002732
7754,Los Leones Trail,CA State Parks - Topanga,10106,101060000,TAPO,Auto Generated and Verified,247,Los Angeles,90272,3rd District,575 Los Liones Dr,SA,,34.04712732,-118.55981949,206,-118.55981949,34.04712732
7756,Lower Cheeseboro Canyon Trail,National Parks Service,20075,200750000,TH,Auto Generated and Verified,933,Unincorporated Los Angeles County,91301,3rd District,5568 Chesebro Rd,ST,,34.14962722,-118.73518773,207,-118.73518773,34.14962722
7757,Lower Encina Trail,CA State Parks - Topanga,10108,101080000,TAPO,Auto Generated and Verified,851,Unincorporated Los Angeles County,90290,3rd District,21943 Entrada Rd,SA,,34.09452162,-118.60088719,208,-118.60088719,34.09452162
7759,Lower Stunt High Trail,National Parks Service,20076,200760000,TH,Auto Generated and Verified,1546,Unincorporated Los Angeles County,91302,3rd District,1255 Stunt Rd,ST,,34.09074623,-118.65577061,209,-118.65577061,34.09074623
7761,Malibou Lake Connector Trail,National Parks Service,20077,200770000,TAPO,Auto Generated and Verified,818,Unincorporated Los Angeles County,91301,3rd District,Waring Drive and Mullholland Hwy,SA,,34.1110731,-118.77717004,210,-118.77717004,34.1110731
7762,Malibu Lake Vista Trail,CA State Parks - Malibu Creek,10109,101090000,TAPO,Auto Generated and Verified,850,Unincorporated Los Angeles County,91301,3rd District,28848 Lake Vista Dr,SA,,34.11208046,-118.75042768,211,-118.75042768,34.11208046
7764,Malibu Springs Trail,National Parks Service,30009,300090002,TH,Auto Generated and Verified,415,Unincorporated Los Angeles County,90265,3rd District,35241 Mulholland Hwy,ST,,34.0837575,-118.9182729,212,-118.9182729,34.0837575
7766,Marco Polo Trail,National Parks Service,20079,200790000,TH,Auto Generated and Verified,743,Unincorporated Los Angeles County,91301,3rd District,Paramount Ranch Drive and Cornell Road,SA,,34.11706246,-118.75631093,213,-118.75631093,34.11706246
7767,Meadow Trail,National Parks Service,20080,200800000,TH,Auto Generated and Verified,1042,Unincorporated Los Angeles County,91302,3rd District,2139 Stunt Rd,ST,,34.10134052,-118.6576138,214,-118.6576138,34.10134052
7768,Medea Creek - Racetrack Connector,National Parks Service,20081,200810000,TAPO,Auto Generated and Verified,809,Unincorporated Los Angeles County,91301,3rd District,29015 Mulholland Hwy,SA,,34.11303909,-118.7524793,215,-118.7524793,34.11303909
7926,Backbone Trail, ,30012,100080000,TAPO,,1179,Unincorporated Los Angeles County,90290,3rd District,20801 Entrada Rd,SA,,34.09358071,-118.58822225,216,-118.58822225,34.09358071
7927,Deer Valley Loop Trail,National Parks Service,20052,200520000,TH,Auto Generated and Verified,1003,Unincorporated Los Angeles County,90265,3rd District,,N,,34.05200023,-118.75851394,217,-118.75851394,34.05200023
7928,Caballero Canyon Trail,,30016,300160001,TAPO,Access via Fire Road 28,991,Los Angeles,91356,3rd District,,ST,,34.14061477,-118.54184868,218,-118.54184868,34.14061477
7929,Zuma Canyon Trail,National Parks Service,20134,,TH,From NPS,96,Malibu,90265,3rd District,End of Bonsall Drive,SA,,34.03171131,-118.81225024,219,-118.81225024,34.03171131
7931,Crags Road,CA State Parks - Malibu Creek,10048,,TAPO,Auto Generated and Verified,1015,Unincorporated Los Angeles County,91302,3rd District,27637 Mulholland Hwy,ST,,34.10528844,-118.73170987,220,-118.73170987,34.10528844
7932,Eagle Springs Fire Road,CA State Parks - Topanga,10058,,TAPO,Auto Generated and Verified,1125,Unincorporated Los Angeles County,90290,3rd District,20610 Hillside Dr,ST,,34.09972497,-118.58690706,221,-118.58690706,34.09972497
7939,West Mandeville Fire Road, ,20145,201450000,TH,Added From hard copy maps and state parks data,1879,Los Angeles,90049,3rd District,17460 Mulholland Dr,SA,,34.12904371,-118.51352284,222,-118.51352284,34.12904371
7940,Sullivan Fire Road,CA State Parks - Topanga,20144,201440000,TAPO,Added From hard copy maps and state parks data,1879,Los Angeles,90049,3rd District,17460 Mulholland Dr,SA,,34.12904371,-118.51352284,223,-118.51352284,34.12904371
7941,Ann Skager Spur Trail Ann Skager Spur Trail,CA State Parks - Malibu Creek,30010,300100000,TAPO,Auto Generated and Verified,539,Unincorporated Los Angeles County,91302,3rd District,27347 Waycross Dr,SA,,34.0959552,-118.71705847,224,-118.71705847,34.0959552
7942,Lower Bee Hive Trail,CA State Parks - Will Rogers,22,220000,TAPO,Auto Generated and Verified,426,Los Angeles,90272,3rd District,1666 Will Rogers State Park Rd,SA,,34.0543065,-118.51317308,225,-118.51317308,34.0543065
7943,Backbone Trail - Betty Rogers,CA State Parks - Will Rogers,10005,100050000,TAPO,Auto Generated and Verified,667,Los Angeles,90272,3rd District,1666 Will Rogers State Park Rd,SA,,34.05852272,-118.51488429,226,-118.51488429,34.05852272
7944,Backbone Trail - Bridge Bypass Equestrian Trail,CA State Parks - Malibu Creek,10006,100060000,TH,Auto Generated and Verified,463,Unincorporated Los Angeles County,91302,3rd District,26278 Piuma Rd,SA,,34.08180404,-118.70337732,227,-118.70337732,34.08180404
7945,Backbone Trail - Inspiration Point Loop,CA State Parks - Will Rogers,10011,100110000,TAPO,Auto Generated and Verified,617,Los Angeles,90272,3rd District,1666 Will Rogers State Park Rd,SA,,34.05624678,-118.51443584,228,-118.51443584,34.05624678
7946,Backbone Trail - Rogers Road,CA State Parks - Will Rogers,10019,100190000,TAPO,Auto Generated and Verified,708,Los Angeles,90272,3rd District,1666 Will Rogers State Park Rd,SA,,34.06065636,-118.51371252,229,-118.51371252,34.06065636
7947,Backbone Trail - Temescal Ridge Fire Road, ,10022,100220000,TAPO,,1724,Los Angeles,91356,3rd District,3001 Reseda Blvd,ST,,34.12863336,-118.553766,230,-118.553766,34.12863336
7948,Bay Tree Trail, ,10027,100270000,TAPO,,1724,Los Angeles,91356,3rd District,3001 Reseda Blvd,ST,,34.12863336,-118.553766,231,-118.553766,34.12863336
7949,Yellow Hill Fire Trl Alternate,CA State Parks - Leo Carrillo,10181,101810000,TAPO,,23,Ventrua County,,,,ST,,34.04629397,-118.93519105,232,-118.93519105,34.04629397
7950,Water Tank Road,CA State Parks - Leo Carrillo,10174,101760000,TAPO,,13,Unincorporated Los Angeles County,90265,3rd District,35907 Pacific Coast Hwy,SA,,34.04620493,-118.9337354,233,-118.9337354,34.04620493
7951,Leo Carrillo Scenic Overlook Trail,CA State Parks - Leo Carrillo,10096,101760000,TH,Auto Generated and Verified,594,Unincorporated Los Angeles County,90265,3rd District,35907 Pacific Coast Hwy,SA,,34.05196861,-118.92809611,234,-118.92809611,34.05196861
7952,Nicholas Flat ADA Trail,CA State Parks - Leo Carrillo,10184,101840000,TAPO,Added per Dale's request,1483,Unincorporated Los Angeles County,90265,3rd District,33700 Decker School Rd,ST,,34.07061305,-118.90648716,235,-118.90648716,34.07061305
7953,Nicholas Flat Trail,CA State Parks - Leo Carrillo,10121,101210000,TH,Auto Generated and Verified,1414,Unincorporated Los Angeles County,90265,3rd District,33700 Decker School Rd,ST,,34.06557529,-118.90797957,236,-118.90797957,34.06557529
7954,Nicholas Ridge Trail,CA State Parks - Leo Carrillo,10126,,TAPO,Added per Dale's request,1483,Unincorporated Los Angeles County,90265,3rd District,33700 Decker School Rd,ST,,34.07061305,-118.90648716,237,-118.90648716,34.07061305
7955,Nicholas Ridge Motorway,CA State Parks - Leo Carrillo,10125,,TAPO,Added per Dale's request,1483,Unincorporated Los Angeles County,90265,3rd District,33700 Decker School Rd,ST,,34.07061305,-118.90648716,238,-118.90648716,34.07061305
7956,Nicholas Flat Trail,CA State Parks - Leo Carrillo,10121,101210000,TH,Auto Generated and Verified,1422,Unincorporated Los Angeles County,90265,3rd District,33700 Decker School Rd,ST,,34.06626459,-118.90838132,239,-118.90838132,34.06626459
7957,Nicholas Pond Trail,CA State Parks - Leo Carrillo,10122,,TAPO,Added per Dale's request,1483,Unincorporated Los Angeles County,90265,3rd District,33700 Decker School Rd,ST,,34.07061305,-118.90648716,240,-118.90648716,34.07061305
7958,Nicholas Flat Trail,CA State Parks - Leo Carrillo,10121,101210000,TH,Auto Generated and Verified,1512,Unincorporated Los Angeles County,90265,3rd District,33700 Decker School Rd,ST,,34.07192658,-118.90716649,241,-118.90716649,34.07192658
7959,Nicholas Ranch Road,CA State Parks - Leo Carrillo,10124,101240000,TAPO,Auto Generated and Verified,1483,Unincorporated Los Angeles County,90265,3rd District,33700 Decker School Rd,ST,,34.07061305,-118.90648716,242,-118.90648716,34.07061305
7960,Nicholas Ranch House Road,CA State Parks - Leo Carrillo,10123,,TAPO,Added per Dale's request,1483,Unincorporated Los Angeles County,90265,3rd District,33700 Decker School Rd,ST,,34.07061305,-118.90648716,243,-118.90648716,34.07061305
7963,Nicholas Meadow Trail,CA State Parks - Leo Carrillo,10182,300090000,TAPO,Added per Dale's request,1483,Unincorporated Los Angeles County,90265,3rd District,33700 Decker School Rd,ST,,34.07061305,-118.90648716,244,-118.90648716,34.07061305
7964,Backbone Trail - Etz Meloy Motorway,National Parks Service,20008,200070012,TAPO,Auto Generated and Verified,1622,Unincorporated Los Angeles County,90265,3rd District,33286 Mulholland Hwy,ST,,34.09166241,-118.86713927,245,-118.86713927,34.09166241
7965,Backbone Trail - Etz Meloy Motorway Overlook,National Parks Service,20141,200070012,TAPO,Auto Generated and Verified,1622,Unincorporated Los Angeles County,90265,3rd District,33286 Mulholland Hwy,ST,,34.09166241,-118.86713927,246,-118.86713927,34.09166241
7966,Mulholland Highway,National Parks Service,20091,200070012,TAPO,Auto Generated and Verified,1622,Unincorporated Los Angeles County,90265,3rd District,33286 Mulholland Hwy,ST,,34.09166241,-118.86713927,247,-118.86713927,34.09166241
7967,Clarke Ranch Road Connector,National Parks Service,20043,200420000,TH,Auto Generated and Verified,1391,Unincorporated Los Angeles County,90265,3rd District,1091 Encinal Canyon Rd,SA,,34.08577506,-118.86251021,248,-118.86251021,34.08577506
7968,Clarke Ranch Road Connector,National Parks Service,20043,200070000,TH,Auto Generated and Verified,1398,Unincorporated Los Angeles County,90265,3rd District,1063 Encinal Canyon Rd,SA,,34.08519896,-118.86159778,249,-118.86159778,34.08519896
7969,Backbone Trail - Zuma Ridge Trail,National Parks Service,20020,201370000,TAPO,Confirmed with NPS data points,1724,Unincorporated Los Angeles County,90265,3rd District,500 Encinal Canyon Rd,ST,,34.08683648,-118.83923919,250,-118.83923919,34.08683648
7970,Pond Trail,National Parks Service,20101,201120000,TH,Confirmed with NPS data points,1709,Unincorporated Los Angeles County,90265,3rd District,31520 Mulholland Hwy,SA,,34.09706364,-118.81409729,251,-118.81409729,34.09706364
7971,Overlook Trail,National Parks Service,20095,201120000,TH,Confirmed with NPS data points,1709,Unincorporated Los Angeles County,90265,3rd District,31520 Mulholland Hwy,SA,,34.09706364,-118.81409729,252,-118.81409729,34.09706364
7972,Rocky Oaks - Unnamed,CA State Parks - Topanga,20110,100700000,TH,Confirmed with NPS data points,1709,Unincorporated Los Angeles County,90265,3rd District,31520 Mulholland Hwy,SA,,34.09706364,-118.81409729,253,-118.81409729,34.09706364
7973,Rocky Oaks Loop - Pond Connector,National Parks Service,20111,201120000,TH,Confirmed with NPS data points,1709,Unincorporated Los Angeles County,90265,3rd District,31520 Mulholland Hwy,SA,,34.09706364,-118.81409729,254,-118.81409729,34.09706364
7974,Zuma Canyon Connector Trail,National Parks Service,20133,201350000,TH,Confirmed with NPS data points,1323,Unincorporated Los Angeles County,90265,3rd District,2615 S Kanan Dume Rd,ST,,34.06138582,-118.80406238,255,-118.80406238,34.06138582
7975,Canyon View Trail,National Parks Service,20033,,TH,From NPS,96,Malibu,90265,3rd District,End of Bonsall Drive,SA,,34.03171131,-118.81225024,256,-118.81225024,34.03171131
7976,Scenic Trail (Zuma),National Parks Service,20116,,TH,From NPS,96,Malibu,90265,3rd District,End of Bonsall Drive,SA,,34.03171131,-118.81225024,257,-118.81225024,34.03171131
7978,Edison Road,CA State Parks - Malibu Creek,20060,100140000,TH,Auto Generated and Verified,1992,Unincorporated Los Angeles County,90265,3rd District,Castro Peak Mtwy,SA,,34.08200797,-118.75840606,258,-118.75840606,34.08200797
7979,Topanga Ridge Motorway,CA State Parks - Malibu Creek,20123,300020000,TH,Auto Generated and Verified,2374,Unincorporated Los Angeles County,90290,3rd District,24839 Saddle Peak Rd,SA,,34.08127044,-118.64508228,259,-118.64508228,34.08127044
7980,Peter Strauss - Triunfo Loop,National Parks Service,20142,201000000,TAPO,Auto Generated and Verified,760,Unincorporated Los Angeles County,91301,3rd District,,SA,,34.11235484,-118.77907598,260,-118.77907598,34.11235484
7981,Paramount Ridge Trail,National Parks Service,20098,200700000,TAPO,Auto Generated and Verified,809,Unincorporated Los Angeles County,91301,3rd District,3619 Cornell Rd,ST,,34.12530143,-118.7499441,261,-118.7499441,34.12530143
7982,Bwana Trail, ,20029,200700002,TAPO,Added From NPS ParkEntrancePts.shp,764,Unincorporated Los Angeles County,91301,3rd District,3450 Cornell Rd,ST,,34.12352858,-118.75025663,262,-118.75025663,34.12352858
7983,Ebb Tide Trail, ,20057,200700002,TAPO,Added From NPS ParkEntrancePts.shp,764,Unincorporated Los Angeles County,91301,3rd District,3450 Cornell Rd,ST,,34.12352858,-118.75025663,263,-118.75025663,34.12352858
7984,Racetrack Road,National Parks Service,20103,201300000,TAPO,Auto Generated and Verified,738,Unincorporated Los Angeles County,91301,3rd District,Paramount Ranch Rd,SA,,34.11550054,-118.75525222,264,-118.75525222,34.11550054
7985,Medicine Woman Connector,National Parks Service,20083,201300000,TAPO,Auto Generated and Verified,738,Unincorporated Los Angeles County,91301,3rd District,Paramount Ranch Rd,SA,,34.11550054,-118.75525222,265,-118.75525222,34.11550054
7986,Coyote - Hacienda Connector,National Parks Service,20047,200480000,TAPO,Auto Generated and Verified,756,Unincorporated Los Angeles County,91301,3rd District,Paramount Ranch Rd,SA,,34.11579905,-118.75716839,266,-118.75716839,34.11579905
7987,Coyote Picnic Table Spur,National Parks Service,20049,200480000,TAPO,Auto Generated and Verified,756,Unincorporated Los Angeles County,91301,3rd District,Paramount Ranch Rd,SA,,34.11579905,-118.75716839,267,-118.75716839,34.11579905
7988,Racetrack Turn 7,National Parks Service,20104,200480000,TAPO,Auto Generated and Verified,756,Unincorporated Los Angeles County,91301,3rd District,Paramount Ranch Rd,SA,,34.11579905,-118.75716839,268,-118.75716839,34.11579905
7989,Bwana Connector,National Parks Service,20028,200700000,TAPO,Auto Generated and Verified,809,Unincorporated Los Angeles County,91301,3rd District,3619 Cornell Rd,ST,,34.12530143,-118.7499441,269,-118.7499441,34.12530143
7990,Palo Comado Connector,National Parks Service,20096,200020000,TAPO,,1011,Unincorporated Los Angeles County,91301,3rd District,Cheseboro Canyon Rd and Cheseboro Road,SA,,34.15655231,-118.73083841,270,-118.73083841,34.15655231
7991,Canyon View Trail (Cheeseboro),National Parks Service,20034,200020000,TH,Auto Generated and Verified,1011,Unincorporated Los Angeles County,91301,3rd District,Cheseboro Canyon Rd and Cheseboro Road,SA,,34.15655231,-118.73083841,271,-118.73083841,34.15655231
7992,Cheeseboro Ridge Trail,National Parks Service,20039,200020000,TH,Auto Generated and Verified,1011,Unincorporated Los Angeles County,91301,3rd District,Cheseboro Canyon Rd and Cheseboro Road,SA,,34.15655231,-118.73083841,272,-118.73083841,34.15655231
7993,Modelo Trail Connector,National Parks Service,20086,200020000,TH,Auto Generated and Verified,1011,Unincorporated Los Angeles County,91301,3rd District,Cheseboro Canyon Rd and Cheseboro Road,SA,,34.15655231,-118.73083841,273,-118.73083841,34.15655231
7994,Deer Leg Trail,CA State Parks - Malibu Creek,10055,101090000,TAPO,Auto Generated and Verified,850,Unincorporated Los Angeles County,91301,3rd District,28848 Lake Vista Dr,SA,,34.11208046,-118.75042768,274,-118.75042768,34.11208046
7995,Deer Leg Connector Trail,CA State Parks - Malibu Creek,10054,101090000,TAPO,Auto Generated and Verified,850,Unincorporated Los Angeles County,91301,3rd District,28848 Lake Vista Dr,SA,,34.11208046,-118.75042768,275,-118.75042768,34.11208046
7996,Cage Creek Trail,CA State Parks - Malibu Creek,10037,101090000,TAPO,Auto Generated and Verified,850,Unincorporated Los Angeles County,91301,3rd District,28848 Lake Vista Dr,SA,,34.11208046,-118.75042768,276,-118.75042768,34.11208046
7997,Lookout Trail,CA State Parks - Malibu Creek,10104,101090000,TAPO,Auto Generated and Verified,850,Unincorporated Los Angeles County,91301,3rd District,28848 Lake Vista Dr,SA,,34.11208046,-118.75042768,277,-118.75042768,34.11208046
7998,Crags Road Connector, ,10050,100440000,TAPO,,549,Unincorporated Los Angeles County,91302,3rd District,27359 Waycross Dr,SA,,34.0967567,-118.71623806,278,-118.71623806,34.0967567
7999,Crags Trail, ,10051,100440000,TAPO,,549,Unincorporated Los Angeles County,91302,3rd District,27359 Waycross Dr,SA,,34.0967567,-118.71623806,279,-118.71623806,34.0967567
8000,Crags Vista Point Road, ,10052,100440000,TAPO,,549,Unincorporated Los Angeles County,91302,3rd District,27359 Waycross Dr,SA,,34.0967567,-118.71623806,280,-118.71623806,34.0967567
8001,High Road, ,10078,100440000,TAPO,,549,Unincorporated Los Angeles County,91302,3rd District,27359 Waycross Dr,SA,,34.0967567,-118.71623806,281,-118.71623806,34.0967567
8002,Rock Pool Trail, ,10147,100440000,TAPO,,549,Unincorporated Los Angeles County,91302,3rd District,27359 Waycross Dr,SA,,34.0967567,-118.71623806,282,-118.71623806,34.0967567
8003,Century Dam Route, ,10041,100440000,TAPO,,549,Unincorporated Los Angeles County,91302,3rd District,27359 Waycross Dr,SA,,34.0967567,-118.71623806,283,-118.71623806,34.0967567
8004,Century Lake Road, ,10042,100440000,TAPO,,549,Unincorporated Los Angeles County,91302,3rd District,27359 Waycross Dr,SA,,34.0967567,-118.71623806,284,-118.71623806,34.0967567
8005,Century Lake Trail, ,10043,100440000,TAPO,,549,Unincorporated Los Angeles County,91302,3rd District,27359 Waycross Dr,SA,,34.0967567,-118.71623806,285,-118.71623806,34.0967567
8006,Forest Trail, ,10067,100440000,TAPO,,549,Unincorporated Los Angeles County,91302,3rd District,27359 Waycross Dr,SA,,34.0967567,-118.71623806,286,-118.71623806,34.0967567
8007,Gorge Route, ,10073,100440000,TAPO,,549,Unincorporated Los Angeles County,91302,3rd District,27359 Waycross Dr,SA,,34.0967567,-118.71623806,287,-118.71623806,34.0967567
8008,Campfire Center Trail, ,10039,100440000,TAPO,,549,Unincorporated Los Angeles County,91302,3rd District,27359 Waycross Dr,SA,,34.0967567,-118.71623806,288,-118.71623806,34.0967567
8009,Group Camp Road, ,10075,100440000,TAPO,,549,Unincorporated Los Angeles County,91302,3rd District,27359 Waycross Dr,SA,,34.0967567,-118.71623806,289,-118.71623806,34.0967567
8010,Group Camp Service Road, ,10076,100440000,TAPO,,549,Unincorporated Los Angeles County,91302,3rd District,27359 Waycross Dr,SA,,34.0967567,-118.71623806,290,-118.71623806,34.0967567
8011,Big Rock Lateral,National Parks Service,20023,201270000,TAPO,,1555,Unincorporated Los Angeles County,90290,3rd District,3200 Tuna Canyon Rd,ST,,34.05968704,-118.61654529,291,-118.61654529,34.05968704
8012,Big Rock Motorway,National Parks Service,20024,201270000,TAPO,,1555,Unincorporated Los Angeles County,90290,3rd District,3200 Tuna Canyon Rd,ST,,34.05968704,-118.61654529,292,-118.61654529,34.05968704
8013,Budwood Motorway,National Parks Service,20026,201270000,TAPO,,1555,Unincorporated Los Angeles County,90290,3rd District,3200 Tuna Canyon Rd,ST,,34.05968704,-118.61654529,293,-118.61654529,34.05968704
8016,Nature Trail - Topanga, ,10120,101770000,TAPO,,1184,Unincorporated Los Angeles County,90290,3rd District,Entrada Rd,SA,,34.09340166,-118.587802,294,-118.587802,34.09340166
8017,Visitor Center Road, ,10185,101770000,TAPO,,1184,Unincorporated Los Angeles County,90290,3rd District,Entrada Rd,SA,,34.09340166,-118.587802,295,-118.587802,34.09340166
8018,Ed Edelman North Short Loop,National Parks Service,20059,200580000,TAPO,,1300,Unincorporated Los Angeles County,90290,3rd District,2747 N Topanga Canyon Blvd,SA,,34.12736966,-118.59884359,296,-118.59884359,34.12736966
8019,Fire Road Thirty,National Parks Service - Topanga,10066,200620000,TAPO,,1595,Los Angeles,91356,3rd District,3001 Reseda Blvd,ST,,34.13130356,-118.55316856,297,-118.55316856,34.13130356
8020,Garapito Trail,National Parks Service - Topanga,10068,200620000,TAPO,,1595,Los Angeles,91356,3rd District,3001 Reseda Blvd,ST,,34.13130356,-118.55316856,298,-118.55316856,34.13130356
8021,Farmers Ridge Trail,CA State Parks - Topanga,10065,100640000,TAPO,,1560,Los Angeles,90272,3rd District,18664 Mulholland Dr,ST,,34.12756597,-118.54204606,299,-118.54204606,34.12756597
8023,Backbone Trail - Eagle Rock Fire Road, ,10057,101770000,TAPO,,1184,Unincorporated Los Angeles County,90290,3rd District,Entrada Rd,SA,,34.09340166,-118.587802,300,-118.587802,34.09340166
8024,Eagle Rock Connector, ,10186,101770000,TAPO,,1184,Unincorporated Los Angeles County,90290,3rd District,Entrada Rd,SA,,34.09340166,-118.587802,301,-118.587802,34.09340166
8025,Temescal Ridge Fire Road,CA State Parks - Topanga,30011,100640000,TH,Auto Generated and Verified,1560,Los Angeles,90272,3rd District,18664 Mulholland Dr,ST,,34.12756597,-118.54204606,302,-118.54204606,34.12756597
8027,Betty Rogers Connector Trail,CA State Parks - Will Rogers,10031,101340000,TAPO,Auto Generated and Verified,430,Los Angeles,90272,3rd District,14400 Villa Woods Pl,SA,,34.05453293,-118.51178947,303,-118.51178947,34.05453293
8028,Bone Canyon Road,CA State Parks - Will Rogers,10033,101340000,TAPO,Auto Generated and Verified,430,Los Angeles,90272,3rd District,14400 Villa Woods Pl,SA,,34.05453293,-118.51178947,304,-118.51178947,34.05453293
8029,Bone Canyon Trail,CA State Parks - Will Rogers,10034,101340000,TAPO,Auto Generated and Verified,430,Los Angeles,90272,3rd District,14400 Villa Woods Pl,SA,,34.05453293,-118.51178947,305,-118.51178947,34.05453293
8030,Bridal Path,CA State Parks - Will Rogers,10035,101340000,TAPO,Auto Generated and Verified,430,Los Angeles,90272,3rd District,14400 Villa Woods Pl,SA,,34.05453293,-118.51178947,306,-118.51178947,34.05453293
8031,Inspiration Point Road,CA State Parks - Will Rogers,10086,101340000,TAPO,Auto Generated and Verified,430,Los Angeles,90272,3rd District,14400 Villa Woods Pl,SA,,34.05453293,-118.51178947,307,-118.51178947,34.05453293
8032,Stables Road,CA State Parks - Will Rogers,10155,101340000,TAPO,Auto Generated and Verified,430,Los Angeles,90272,3rd District,14400 Villa Woods Pl,SA,,34.05453293,-118.51178947,308,-118.51178947,34.05453293
8033,Rivas Overlook Trail,CA State Parks - Will Rogers,10144,101340000,TAPO,Auto Generated and Verified,430,Los Angeles,90272,3rd District,14400 Villa Woods Pl,SA,,34.05453293,-118.51178947,309,-118.51178947,34.05453293
8034,Rivas Overlook Trail ADA Section,CA State Parks - Will Rogers,10145,101340000,TAPO,Auto Generated and Verified,430,Los Angeles,90272,3rd District,14400 Villa Woods Pl,SA,,34.05453293,-118.51178947,310,-118.51178947,34.05453293
8035,Sarah Point Road,CA State Parks - Will Rogers,10151,101340000,TAPO,Auto Generated and Verified,430,Los Angeles,90272,3rd District,14400 Villa Woods Pl,SA,,34.05453293,-118.51178947,311,-118.51178947,34.05453293
8036,Service Road,CA State Parks - Will Rogers,10152,101340000,TAPO,Auto Generated and Verified,430,Los Angeles,90272,3rd District,14400 Villa Woods Pl,SA,,34.05453293,-118.51178947,312,-118.51178947,34.05453293
8038,Beehive Connector Trail,CA State Parks - Topanga,10028,300070000,TAPO,Auto Generated and Verified,415,Los Angeles,90272,3rd District,1666 Will Rogers State Park Rd,SA,,34.0544161,-118.50962649,313,-118.50962649,34.0544161
8039,Beehive Trail,CA State Parks - Topanga,10029,300070000,TAPO,Auto Generated and Verified,415,Los Angeles,90272,3rd District,1666 Will Rogers State Park Rd,SA,,34.0544161,-118.50962649,314,-118.50962649,34.0544161
8040,Joesepho Barn Road,CA State Parks - Topanga,10087,300070000,TAPO,Auto Generated and Verified,415,Los Angeles,90272,3rd District,1666 Will Rogers State Park Rd,SA,,34.0544161,-118.50962649,315,-118.50962649,34.0544161
8041,Joesepho Spur Trail,CA State Parks - Topanga,10088,300070000,TAPO,Auto Generated and Verified,415,Los Angeles,90272,3rd District,1666 Will Rogers State Park Rd,SA,,34.0544161,-118.50962649,316,-118.50962649,34.0544161
8042,Murphy Ranch Road Trail,CA State Parks - Topanga,20138,300070000,TAPO,Auto Generated and Verified,415,Los Angeles,90272,3rd District,1666 Will Rogers State Park Rd,SA,,34.0544161,-118.50962649,317,-118.50962649,34.0544161
8043,Piuma Connector Trail, ,10135,100180000,TAPO,,485,Unincorporated Los Angeles County,91302,3rd District,897 Las Virgenes Rd,SA,,34.08316434,-118.70550111,318,-118.70550111,34.08316434
8044,Puerco Mtwy,CA State Parks - Malibu Creek,10140,101120000,TAPO,Auto Generated and Verified,748,Unincorporated Los Angeles County,91302,3rd District,Mesa Peak Mtwy,ST,,34.07825482,-118.71041612,319,-118.71041612,34.07825482
8046,Musch Meadows Trail,CA State Parks - Topanga,10117,101170000,TAPO,Auto Generated and Verified,1137,Unincorporated Los Angeles County,90290,3rd District,Topanga Canyon Boulevard and Oakwood Drive,SA,,34.11072135,-118.58875865,320,-118.58875865,34.11072135
